NORAD_CAT_ID,OBJECT_NAME,OBJECT_TYPE,EPOCH,MEAN_MOTION,ECCENTRICITY,INCLINATION,RA_OF_ASC_NODE,ARG_OF_PERICENTER,MEAN_ANOMALY,BSTAR,MEAN_MOTION_DOT,MEAN_MOTION_DDOT,TLE_LINE0,TLE_LINE1,TLE_LINE2,SEMIMAJOR_AXIS,PERIOD,APOGEE,PERIGEE,DECAYED
53964.0,STARLINK-4633,PAYLOAD,2024-05-11 22:35:59,15.08783673,0.0001868,53.217,337.423,93.193,266.9276,-0.0020246,-0.00032316,0.0,0 STARLINK-4633,1 53964U 22125A   24132.94166179 -.00032316  00000-0 -20246-2 0  9997,2 53964  53.2170 337.4230 0001868  93.1930 266.9276 15.08783673 88661,6918.053,95.441,541.21,538.625,0.0
53964.0,STARLINK-4633,PAYLOAD,2024-05-12 06:32:57,15.08685122,0.0001438,53.2169,335.9364,93.5306,266.585,0.0021888,0.0003457,0.0,0 STARLINK-4633,1 53964U 22125A   24133.27289216  .00034570  00000-0  21888-2 0  9997,2 53964  53.2169 335.9364 0001438  93.5306 266.5850 15.08685122 88781,6918.354,95.447,541.214,539.224,0.0
53964.0,STARLINK-4633,PAYLOAD,2024-05-12 20:51:32,15.08670548,0.000105,53.2169,333.2618,101.236,258.875,0.0019104,0.00030105,0.0,0 STARLINK-4633,1 53964U 22125A   24133.86912186  .00030105  00000-0  19104-2 0  9999,2 53964  53.2169 333.2618 0001050 101.2360 258.8750 15.08670548 88870,6918.398,95.448,540.99,539.537,0.0
53964.0,STARLINK-4633,PAYLOAD,2024-05-12 22:26:54,15.08762981,7.28e-05,53.2167,332.9644,152.3191,207.784,0.0061132,0.00098154,0.0,0 STARLINK-4633,1 53964U 22125A   24133.93535513  .00098154  00000-0  61132-2 0  9998,2 53964  53.2167 332.9644 0000728 152.3191 207.7840 15.08762981 88813,6918.116,95.442,540.484,539.477,0.0
53964.0,STARLINK-4633,PAYLOAD,2024-05-13 12:45:22,15.08875333,3.84e-05,53.2162,330.2887,63.1992,296.9039,0.0019594,0.00031064,0.0,0 STARLINK-4633,1 53964U 22125A   24134.53151468  .00031064  00000-0  19594-2 0  9990,2 53964  53.2162 330.2887 0000384  63.1992 296.9039 15.08875333 88900,6917.772,95.435,539.903,539.372,0.0
53964.0,STARLINK-4633,PAYLOAD,2024-05-13 22:17:41,15.08881018,0.0001797,53.2169,328.5022,81.5755,278.5441,0.0012479,0.0001965,0.0,0 STARLINK-4633,1 53964U 22125A   24134.92895249  .00019650  00000-0  12479-2 0  9997,2 53964  53.2169 328.5022 0001797  81.5755 278.5441 15.08881018 88964,6917.755,95.435,540.863,538.377,0.0
53964.0,STARLINK-4633,PAYLOAD,2024-05-14 12:36:08,15.08898609,0.0001834,53.2175,325.826,80.6095,279.5104,0.0010766,0.00016915,0.0,0 STARLINK-4633,1 53964U 22125A   24135.52509320  .00016915  00000-0  10766-2 0  9994,2 53964  53.2175 325.8260 0001834  80.6095 279.5104 15.08898609 89056,6917.701,95.434,540.835,538.298,0.0
53964.0,STARLINK-4633,PAYLOAD,2024-05-14 18:57:39,15.0891188,0.0001654,53.2169,324.6371,79.1164,281.0015,0.0012481,0.0001967,0.0,0 STARLINK-4633,1 53964U 22125A   24135.79004030  .00019670  00000-0  12481-2 0  9998,2 53964  53.2169 324.6371 0001654  79.1164 281.0015 15.08911880 89099,6917.661,95.433,540.67,538.382,0.0
53964.0,STARLINK-4633,PAYLOAD,2024-05-15 12:26:52,15.08895171,0.0004027,53.2141,321.3622,93.8969,266.2484,0.00033227,5.012e-05,0.0,0 STARLINK-4633,1 53964U 22125A   24136.51866032  .00005012  00000-0  33227-3 0  9994,2 53964  53.2141 321.3622 0004027  93.8969 266.2484 15.08895171 89274,6917.712,95.434,542.363,536.791,0.0
53964.0,STARLINK-4633,PAYLOAD,2024-05-15 18:48:24,15.08869833,0.0001886,53.2173,320.1758,94.2946,265.8262,-0.00014646,-2.62e-05,0.0,0 STARLINK-4633,1 53964U 22125A   24136.78361579 -.00002620  00000-0 -14646-3 0  9997,2 53964  53.2173 320.1758 0001886  94.2946 265.8262 15.08869833 89316,6917.789,95.436,540.959,538.35,0.0
53964.0,STARLINK-4633,PAYLOAD,2024-05-16 12:17:38,15.08864257,0.0002105,53.218,316.9048,96.7024,263.4208,0.00095532,0.00014959,0.0,0 STARLINK-4633,1 53964U 22125A   24137.51225419  .00014959  00000-0  95532-3 0  9990,2 53964  53.2180 316.9048 0002105  96.7024 263.4208 15.08864257 89429,6917.806,95.436,541.127,538.215,0.0
53964.0,STARLINK-4633,PAYLOAD,2024-05-17 18:29:58,15.08844972,6.92e-05,53.2179,311.2529,16.1475,343.9539,0.00062638,9.696e-05,0.0,0 STARLINK-4633,1 53964U 22125A   24138.77081956  .00009696  00000-0  62638-3 0  9998,2 53964  53.2179 311.2529 0000692  16.1475 343.9539 15.08844972 89618,6917.865,95.437,540.209,539.251,0.0
53964.0,STARLINK-4633,PAYLOAD,2024-05-18 04:02:17,15.08864281,0.0002001,53.2194,309.4692,84.3268,275.7952,0.00091186,0.00014264,0.0,0 STARLINK-4633,1 53964U 22125A   24139.16825356  .00014264  00000-0  91186-3 0  9999,2 53964  53.2194 309.4692 0002001  84.3268 275.7952 15.08864281 89670,6917.806,95.436,541.055,538.287,0.0
53964.0,STARLINK-4633,PAYLOAD,2024-05-18 18:20:44,15.08864215,0.0001153,53.2152,306.7944,88.3702,271.7422,0.00071116,0.00011056,0.0,0 STARLINK-4633,1 53964U 22125A   24139.76440913  .00011056  00000-0  71116-3 0  9994,2 53964  53.2152 306.7944 0001153  88.3702 271.7422 15.08864215 89763,6917.806,95.436,540.469,538.874,0.0
53964.0,STARLINK-4633,PAYLOAD,2024-05-19 10:14:36,15.08812617,6.65e-05,53.2157,303.8195,57.9695,302.1361,-0.0013822,-0.00022201,0.0,0 STARLINK-4633,1 53964U 22125A   24140.42680592 -.00022201  00000-0 -13822-2 0  9993,2 53964  53.2157 303.8195 0000665  57.9695 302.1361 15.08812617 89797,6917.964,95.439,540.289,539.369,0.0
53964.0,STARLINK-4633,PAYLOAD,2024-05-19 19:46:54,15.08838884,0.0001008,53.2164,302.0348,89.2795,270.8312,0.00030847,4.625e-05,0.0,0 STARLINK-4633,1 53964U 22125A   24140.82424748  .00004625  00000-0  30847-3 0  9991,2 53964  53.2164 302.0348 0001008  89.2795 270.8312 15.08838884 89923,6917.884,95.438,540.446,539.051,0.0
53964.0,STARLINK-4633,PAYLOAD,2024-05-20 14:51:33,15.08829409,0.0001042,53.2161,298.4656,102.4011,257.7098,0.00069317,0.00010758,0.0,0 STARLINK-4633,1 53964U 22125A   24141.61913819  .00010758  00000-0  69317-3 0  9999,2 53964  53.2161 298.4656 0001042 102.4011 257.7098 15.08829409 89970,6917.913,95.438,540.499,539.057,0.0
53964.0,STARLINK-4633,PAYLOAD,2024-05-20 19:37:43,15.08833648,0.0001202,53.2174,297.574,78.3015,281.8112,0.00052833,8.129e-05,0.0,0 STARLINK-4633,1 53964U 22125A   24141.81785934  .00008129  00000-0  52833-3 0  9990,2 53964  53.2174 297.5740 0001202  78.3015 281.8112 15.08833648 90079,6917.9,95.438,540.596,538.933,0.0
53964.0,STARLINK-4633,PAYLOAD,2024-05-21 14:42:21,15.08830276,0.0001327,53.2172,294.0087,84.0961,276.0182,0.0001743,2.486e-05,0.0,0 STARLINK-4633,1 53964U 22125A   24142.61274645  .00002486  00000-0  17430-3 0  9995,2 53964  53.2172 294.0087 0001327  84.0961 276.0182 15.08830276 90128,6917.91,95.438,540.693,538.857,0.0
53964.0,STARLINK-4633,PAYLOAD,2024-05-21 16:17:44,15.08830988,0.0001243,53.2176,293.7099,92.9671,267.1463,0.00020363,2.954e-05,0.0,0 STARLINK-4633,1 53964U 22125A   24142.67898623  .00002954  00000-0  20363-3 0  9998,2 53964  53.2176 293.7099 0001243  92.9671 267.1463 15.08830988 90206,6917.908,95.438,540.633,538.913,0.0
53964.0,STARLINK-4633,PAYLOAD,2024-05-23 12:48:32,15.08846887,0.0001349,53.2183,285.3834,80.888,279.2264,0.00024159,3.56e-05,0.0,0 STARLINK-4633,1 53964U 22125A   24144.53370433  .00003560  00000-0  24159-3 0  9990,2 53964  53.2183 285.3834 0001349  80.8880 279.2264 15.08846887 90481,6917.859,95.437,540.658,538.791,0.0
53964.0,STARLINK-4633,PAYLOAD,2024-05-23 14:23:55,15.08846153,0.0001193,53.2176,285.0862,81.7882,278.3246,0.00021457,3.129e-05,0.0,0 STARLINK-4633,1 53964U 22125A   24144.59994396  .00003129  00000-0  21457-3 0  9995,2 53964  53.2176 285.0862 0001193  81.7882 278.3246 15.08846153 90420,6917.862,95.437,540.552,538.901,0.0
53964.0,STARLINK-4633,PAYLOAD,2024-05-23 15:59:18,15.08845287,0.0001138,53.2171,284.7886,78.5091,281.6029,0.00018711,2.692e-05,0.0,0 STARLINK-4633,1 53964U 22125A   24144.66618384  .00002692  00000-0  18711-3 0  9996,2 53964  53.2171 284.7886 0001138  78.5091 281.6029 15.08845287 90436,6917.864,95.437,540.516,538.942,0.0
53964.0,STARLINK-4633,PAYLOAD,2024-05-24 12:39:19,15.08840186,0.0001349,53.2179,280.919,90.5586,269.5561,0.00011328,1.515e-05,0.0,0 STARLINK-4633,1 53964U 22125A   24145.52730367  .00001515  00000-0  11328-3 0  9998,2 53964  53.2179 280.9190 0001349  90.5586 269.5561 15.08840186 90638,6917.88,95.438,540.678,538.812,0.0
53964.0,STARLINK-4633,PAYLOAD,2024-05-24 14:14:42,15.08839696,0.0001258,53.2174,280.6219,83.7026,276.4109,9.8371e-05,1.278e-05,0.0,0 STARLINK-4633,1 53964U 22125A   24145.59354428  .00001278  00000-0  98371-4 0  9995,2 53964  53.2174 280.6219 0001258  83.7026 276.4109 15.08839696 90576,6917.881,95.438,540.617,538.876,0.0
53964.0,STARLINK-4633,PAYLOAD,2024-05-24 19:00:51,15.0884022,0.0001416,53.2181,279.7312,103.9327,256.1823,8.8398e-05,1.119e-05,0.0,0 STARLINK-4633,1 53964U 22125A   24145.79226330  .00001119  00000-0  88398-4 0  9999,2 53964  53.2181 279.7312 0001416 103.9327 256.1823 15.08840220 90609,6917.88,95.438,540.724,538.765,0.0
53964.0,STARLINK-4633,PAYLOAD,2024-05-25 12:30:06,15.08830897,0.000154,53.2182,276.4609,110.2012,249.9146,-1.4581e-06,-3.11e-06,0.0,0 STARLINK-4633,1 53964U 22125A   24146.52091250 -.00000311  00000-0 -14581-5 0  9991,2 53964  53.2182 276.4609 0001540 110.2012 249.9146 15.08830897 90789,6917.908,95.438,540.839,538.708,0.0
53964.0,STARLINK-4633,PAYLOAD,2024-05-25 14:05:30,15.08828841,0.0001341,53.2181,276.1617,109.0986,251.0151,-2.684e-05,-7.15e-06,0.0,0 STARLINK-4633,1 53964U 22125A   24146.58715428 -.00000715  00000-0 -26840-4 0  9995,2 53964  53.2181 276.1617 0001341 109.0986 251.0151 15.08828841 90729,6917.914,95.438,540.707,538.852,0.0
53964.0,STARLINK-4633,PAYLOAD,2024-05-26 01:13:11,15.08837285,0.0001165,53.218,274.0854,82.6451,277.4673,4.9328e-05,4.97e-06,0.0,0 STARLINK-4633,1 53964U 22125A   24147.05082957  .00000497  00000-0  49328-4 0  9993,2 53964  53.2180 274.0854 0001165  82.6451 277.4673 15.08837285 90863,6917.889,95.438,540.56,538.948,0.0
53964.0,STARLINK-4633,PAYLOAD,2024-05-26 13:56:16,15.088342,0.0001263,53.2192,271.7148,102.2534,257.86,0.00013991,1.939e-05,0.0,0 STARLINK-4633,1 53964U 22125A   24147.58075116  .00001939  00000-0  13991-3 0  9998,2 53964  53.2192 271.7148 0001263 102.2534 257.8600 15.08834200 90873,6917.898,95.438,540.637,538.889,0.0
